ONEWEB-0108             
1 48076U 21025AL  23356.41937939  .00000030  00000+0  47230-4 0  9991
2 48076  87.8994 140.8926 0001239  99.6082 260.5187 13.13472168134486
ONEWEB-0169             
1 48077U 21025AM  23356.45112230 -.00000007  00000+0 -52830-4 0  9993
2 48077  87.8994 140.8910 0001250  93.2856 266.8416 13.13469334133149
ONEWEB-0176             
1 48210U 21031A   23356.32216672  .00000220  00000+0  55836-3 0  9993
2 48210  87.8974 110.4086 0001512 105.1615 254.9682 13.14502295129042
ONEWEB-0184             
1 48211U 21031B   23356.37132028  .00002516  00000+0  67514-2 0  9996
2 48211  87.8979 110.3881 0002548 128.2107 231.9252 13.14497611129023
ONEWEB-0179             
1 48212U 21031C   23356.41730911 -.00000100  00000+0 -30326-3 0  9998
2 48212  87.8987 110.3754 0001719 104.7145 255.4176 13.14501124129078
ONEWEB-0180             
1 48213U 21031D   23356.37448765 -.00000084  00000+0 -26107-3 0  9990
2 48213  87.8981 110.3869 0001870 102.5404 257.5935 13.14505842128955
ONEWEB-0218             
1 48214U 21031E   23356.39669428  .00000274  00000+0  70457-3 0  9990
2 48214  87.8984 110.3847 0002718 122.3352 237.8041 13.14504957129113
ONEWEB-0209             
1 48215U 21031F   23356.38560272  .00000164  00000+0  40909-3 0  9994
2 48215  87.8974 110.4194 0001652 102.3466 257.7848 13.14503274129116
